{
  "norad_id": 48284,
  "name": "STARLINK-2564",
  "history": [
    {
      "epoch": "2026-03-28T22:23:58.338240",
      "apogee_km": 476.0449940655308,
      "perigee_km": 474.3067197924993,
      "latitude_deg": -53.019335548856596,
      "longitude_deg": 177.99815359991044,
      "semi_major_axis_km": 6853.312856929015,
      "eccentricity": 0.00012682,
      "inclination_deg": 53.1618,
      "raan_deg": 346.3948,
      "arg_perigee_deg": 96.1869,
      "mean_anomaly_deg": 263.9276,
      "mean_motion_rev_day": 15.30213133
    },
    {
      "epoch": "2026-03-28T23:58:01.568064",
      "apogee_km": 476.03530570850035,
      "perigee_km": 474.3096423829347,
      "latitude_deg": -29.97246241088902,
      "longitude_deg": -175.7315910400357,
      "semi_major_axis_km": 6853.309474045717,
      "eccentricity": 0.0001259,
      "inclination_deg": 53.1615,
      "raan_deg": 346.0911,
      "arg_perigee_deg": 91.2805,
      "mean_anomaly_deg": 268.834,
      "mean_motion_rev_day": 15.30214266
    }
  ]
}